OBJECT_NAME,OBJECT_ID,EPOCH,MEAN_MOTION,ECCENTRICITY,INCLINATION,RA_OF_ASC_NODE,ARG_OF_PERICENTER,MEAN_ANOMALY,EPHEMERIS_TYPE,CLASSIFICATION_TYPE,NORAD_CAT_ID,ELEMENT_SET_NO,REV_AT_EPOCH,BSTAR,MEAN_MOTION_DOT,MEAN_MOTION_DDOT
IRIDIUM 156,2018-061H,2026-06-20T09:31:02.860896,14.34216473,.000204,86.3959,55.3875,83.6900,276.4528,0,U,43576,999,41383,.6632E-4,.206E-5,0
IRIDIUM 164,2018-061J,2026-06-20T09:03:38.478816,14.34217185,.0002169,86.3958,55.4358,89.5185,270.6259,0,U,43577,999,41387,-.10898E-5,.17E-6,0
IRIDIUM 159,2018-061K,2026-06-20T09:58:26.463648,14.34218045,.0002265,86.3958,55.3567,84.1741,275.9713,0,U,43578,999,41384,.17727E-4,.69E-6,0
IRIDIUM 180,2019-002A,2026-06-20T09:57:42.906816,14.34217731,.0002259,86.3972,352.2478,89.2789,270.8666,0,U,43922,999,38945,.29462E-4,.102E-5,0
IRIDIUM 176,2019-002B,2026-06-20T10:06:44.525088,14.72270591,.0002328,86.6092,352.1881,93.4267,266.7217,0,U,43923,999,39972,.87686E-4,.578E-5,0
IRIDIUM 168,2019-002C,2026-06-20T11:29:02.335200,14.34220159,.0002212,86.3974,352.2986,89.9105,270.2344,0,U,43924,999,38944,.54932E-4,.174E-5,0
IRIDIUM 173,2019-002D,2026-06-19T23:27:30.955104,14.34217706,.00021796,86.3969,352.3968,87.6004,272.5441,0,U,43925,999,38935,.57397704E-4,.181E-5,0
IRIDIUM 169,2019-002E,2026-06-20T07:30:16.849728,14.38610217,.0001762,86.4222,23.8864,75.2300,284.9093,0,U,43926,999,39067,.60469E-4,.205E-5,0
IRIDIUM 172,2019-002F,2026-06-20T11:01:38.480160,14.34219590,.0002252,86.3971,352.2033,88.6812,271.4642,0,U,43927,999,38943,.50236E-4,.16E-5,0
IRIDIUM 175,2019-002G,2026-06-20T09:28:49.067040,14.43614192,.0002926,86.4515,289.1799,169.7310,190.3951,0,U,43928,999,39944,.68437E-4,.252E-5,0
IRIDIUM 171,2019-002H,2026-06-20T10:34:14.911104,14.34217480,.000193,86.3975,352.5178,91.8050,268.3367,0,U,43929,999,38942,-.4674E-5,.7E-7,0
IRIDIUM 170,2019-002J,2026-06-20T10:15:38.420928,14.72271038,.000236,86.6092,352.1879,89.9560,270.1927,0,U,43930,999,39973,.86449E-4,.57E-5,0
IRIDIUM 167,2019-002K,2026-06-20T10:25:06.882816,14.34217494,.0001784,86.3966,352.2364,94.1066,266.0334,0,U,43931,999,38942,-.51866E-5,.5E-7,0
IRIDIUM 181,2023-068S,2026-06-20T10:25:20.502048,14.43308086,.0002392,86.4498,55.4334,88.7656,271.3819,0,U,56726,999,16290,.63245E-4,.233E-5,0
IRIDIUM 177,2023-068T,2026-06-20T10:22:26.844096,14.80229741,.0002355,86.1964,327.2497,88.7713,271.3778,0,U,56727,999,16684,.991E-4,.78E-5,0
IRIDIUM 174,2023-068U,2026-06-20T09:57:53.214336,14.72267531,.0002429,86.6099,352.3407,84.2983,275.8511,0,U,56728,999,16649,.90019E-4,.592E-5,0
IRIDIUM 178,2023-068V,2026-06-20T00:22:42.456288,14.80237780,.00026089,86.6536,24.1779,85.3465,274.8055,0,U,56729,999,16678,.91292859E-4,.72E-5,0
IRIDIUM 179,2023-068W,2026-06-20T08:21:40.316256,14.80235509,.000247,86.6772,33.0280,88.2467,271.9038,0,U,56730,999,16683,.88708E-4,.7E-5,0
