IRIDIUM 156             
1 43576U 18061H   26171.39656089  .00000206  00000+0  66320-4 0  9992
2 43576  86.3959  55.3875 0002040  83.6900 276.4528 14.34216473413830
IRIDIUM 164             
1 43577U 18061J   26171.37752869  .00000017  00000+0 -10898-5 0  9995
2 43577  86.3958  55.4358 0002169  89.5185 270.6259 14.34217185413871
IRIDIUM 159             
1 43578U 18061K   26171.41558407  .00000069  00000+0  17727-4 0  9996
2 43578  86.3958  55.3567 0002265  84.1741 275.9713 14.34218045413845
IRIDIUM 180             
1 43922U 19002A   26171.41507994  .00000102  00000+0  29462-4 0  9997
2 43922  86.3972 352.2478 0002259  89.2789 270.8666 14.34217731389456
IRIDIUM 176             
1 43923U 19002B   26171.42134867  .00000578  00000+0  87686-4 0  9993
2 43923  86.6092 352.1881 0002328  93.4267 266.7217 14.72270591399727
IRIDIUM 168             
1 43924U 19002C   26171.47849925  .00000174  00000+0  54932-4 0  9997
2 43924  86.3974 352.2986 0002212  89.9105 270.2344 14.34220159389446
IRIDIUM 173             
1 43925U 19002D   26170.97744161  .00000181  00000+0  57398-4 0  9995
2 43925  86.3969 352.3968 0002179  87.6004 272.5441 14.34217706389354
IRIDIUM 169             
1 43926U 19002E   26171.31269502  .00000205  00000+0  60469-4 0  9996
2 43926  86.4222  23.8864 0001762  75.2300 284.9093 14.38610217390677
IRIDIUM 172             
1 43927U 19002F   26171.45947315  .00000160  00000+0  50236-4 0  9998
2 43927  86.3971 352.2033 0002252  88.6812 271.4642 14.34219590389434
IRIDIUM 175             
1 43928U 19002G   26171.39501235  .00000252  00000+0  68437-4 0  9993
2 43928  86.4515 289.1799 0002926 169.7310 190.3951 14.43614192399440
IRIDIUM 171             
1 43929U 19002H   26171.44045036  .00000007  00000+0 -46740-5 0  9995
2 43929  86.3975 352.5178 0001930  91.8050 268.3367 14.34217480389429
IRIDIUM 170             
1 43930U 19002J   26171.42752802  .00000570  00000+0  86449-4 0  9994
2 43930  86.6092 352.1879 0002360  89.9560 270.1927 14.72271038399739
IRIDIUM 167             
1 43931U 19002K   26171.43410744  .00000005  00000+0 -51866-5 0  9992
2 43931  86.3966 352.2364 0001784  94.1066 266.0334 14.34217494389420
IRIDIUM 181             
1 56726U 23068S   26171.43426507  .00000233  00000+0  63245-4 0  9994
2 56726  86.4498  55.4334 0002392  88.7656 271.3819 14.43308086162903
IRIDIUM 177             
1 56727U 23068T   26171.43225514  .00000780  00000+0  99100-4 0  9996
2 56727  86.1964 327.2497 0002355  88.7713 271.3778 14.80229741166844
IRIDIUM 174             
1 56728U 23068U   26171.41519924  .00000592  00000+0  90019-4 0  9997
2 56728  86.6099 352.3407 0002429  84.2983 275.8511 14.72267531166496
IRIDIUM 178             
1 56729U 23068V   26171.01576917  .00000720  00000+0  91293-4 0  9997
2 56729  86.6536  24.1779 0002608  85.3465 274.8055 14.80237780166781
IRIDIUM 179             
1 56730U 23068W   26171.34838329  .00000700  00000+0  88708-4 0  9998
2 56730  86.6772  33.0280 0002470  88.2467 271.9038 14.80235509166834
